NORAD_CAT_ID,OBJECT_NAME,OBJECT_TYPE,EPOCH,MEAN_MOTION,ECCENTRICITY,INCLINATION,RA_OF_ASC_NODE,ARG_OF_PERICENTER,MEAN_ANOMALY,BSTAR,MEAN_MOTION_DOT,MEAN_MOTION_DDOT,TLE_LINE0,TLE_LINE1,TLE_LINE2,SEMIMAJOR_AXIS,PERIOD,APOGEE,PERIGEE,DECAYED
55397.0,STARLINK-5224,PAYLOAD,2023-03-12 02:54:27,15.69934969,0.0003366,69.9969,338.8121,260.159,99.9226,4.0247e-05,4.631e-05,0.0,0 STARLINK-5224,1 55397U 23014G   23071.12115416  .00004631  00000-0  40247-4 0  9998,2 55397  69.9969 338.8121 0003366 260.1590  99.9226 15.69934969  6392,6737.22,91.724,361.353,356.817,0.0
55397.0,STARLINK-5224,PAYLOAD,2023-03-12 16:40:14,15.69920459,0.0003467,69.9977,337.2018,268.7515,91.3283,1.6992e-05,1.83e-05,0.0,0 STARLINK-5224,1 55397U 23014G   23071.69461124  .00001830  00000-0  16992-4 0  9998,2 55397  69.9977 337.2018 0003467 268.7515  91.3283 15.69920459  6480,6737.262,91.724,361.462,356.791,0.0
55397.0,STARLINK-5224,PAYLOAD,2023-03-13 01:50:44,15.69935554,0.000307,69.9976,336.1262,258.4206,101.6646,3.4872e-05,3.984e-05,0.0,0 STARLINK-5224,1 55397U 23014G   23072.07690486  .00003984  00000-0  34872-4 0  9995,2 55397  69.9976 336.1262 0003070 258.4206 101.6646 15.69935554  6548,6737.218,91.724,361.152,357.015,0.0
55397.0,STARLINK-5224,PAYLOAD,2023-03-14 02:18:46,15.69919298,0.0003001,69.9982,333.2599,287.4055,72.6812,-1.7255e-05,-2.286e-05,0.0,0 STARLINK-5224,1 55397U 23014G   23073.09637349 -.00002286  00000-0 -17255-4 0  9999,2 55397  69.9982 333.2599 0003001 287.4055  72.6812 15.69919298  6701,6737.265,91.724,361.152,357.108,0.0
55397.0,STARLINK-5224,PAYLOAD,2023-03-14 16:04:32,15.69927889,0.0002886,69.9995,331.6491,249.3867,110.7019,1.9325e-05,2.112e-05,0.0,0 STARLINK-5224,1 55397U 23014G   23073.66982415  .00002112  00000-0  19325-4 0  9995,2 55397  69.9995 331.6491 0002886 249.3867 110.7019 15.69927889  7738,6737.24,91.724,361.05,357.161,0.0
55397.0,STARLINK-5224,PAYLOAD,2023-03-15 02:46:48,15.69925195,0.0003219,69.9989,330.3934,255.4251,104.6588,1.7218e-05,1.858e-05,0.0,0 STARLINK-5224,1 55397U 23014G   23074.11584242  .00001858  00000-0  17218-4 0  9997,2 55397  69.9989 330.3934 0003219 255.4251 104.6588 15.69925195  6869,6737.248,91.724,361.282,356.944,0.0
55397.0,STARLINK-5224,PAYLOAD,2023-03-15 16:32:38,15.6983397,0.0003288,69.999,328.7815,249.637,110.4473,0.00040833,0.00048989,0.0,0 STARLINK-5224,1 55397U 23014G   23074.68933551  .00048989  00000-0  40833-3 0  9994,2 55397  69.9990 328.7815 0003288 249.6370 110.4473 15.69833970  6950,6737.509,91.729,361.589,357.159,0.0
55397.0,STARLINK-5224,PAYLOAD,2023-03-16 01:43:05,15.69939943,0.0002524,69.9995,327.7047,264.119,95.9718,-4.2458e-07,-2.63e-06,0.0,0 STARLINK-5224,1 55397U 23014G   23075.07159057 -.00000263  00000-0 -42458-6 0  9992,2 55397  69.9995 327.7047 0002524 264.1190  95.9718 15.69939943  7019,6737.206,91.723,360.771,357.37,0.0
55397.0,STARLINK-5224,PAYLOAD,2023-03-16 15:28:52,15.69921169,0.0003206,69.9982,326.0925,254.9032,105.1809,1.0232e-05,1.018e-05,0.0,0 STARLINK-5224,1 55397U 23014G   23075.64504833  .00001018  00000-0  10232-4 0  9991,2 55397  69.9982 326.0925 0003206 254.9032 105.1809 15.69921169  7108,6737.26,91.724,361.284,356.965,0.0
55397.0,STARLINK-5224,PAYLOAD,2023-03-17 02:11:08,15.6992252,0.0003289,69.9966,324.8416,274.5167,85.5653,1.589e-05,1.698e-05,0.0,0 STARLINK-5224,1 55397U 23014G   23076.09106716  .00001698  00000-0  15890-4 0  9998,2 55397  69.9966 324.8416 0003289 274.5167  85.5653 15.69922520  8111,6737.256,91.724,361.337,356.905,0.0
55397.0,STARLINK-5224,PAYLOAD,2023-03-17 20:32:09,15.69926008,0.0003473,69.9964,322.693,273.9376,86.1423,1.5737e-05,1.68e-05,0.0,0 STARLINK-5224,1 55397U 23014G   23076.85566699  .00001680  00000-0  15737-4 0  9993,2 55397  69.9964 322.6930 0003473 273.9376  86.1423 15.69926008  8236,6737.246,91.724,361.451,356.771,0.0
55397.0,STARLINK-5224,PAYLOAD,2023-03-18 02:39:09,15.69938193,0.0003492,69.9983,321.9714,265.2948,94.7849,1.9874e-05,2.179e-05,0.0,0 STARLINK-5224,1 55397U 23014G   23077.11052478  .00002179  00000-0  19874-4 0  9998,2 55397  69.9983 321.9714 0003492 265.2948  94.7849 15.69938193  7334,6737.211,91.723,361.428,356.723,0.0
55397.0,STARLINK-5224,PAYLOAD,2023-03-18 19:28:25,15.69937134,0.0002996,69.998,320.0019,251.3482,108.7389,3.1313e-05,3.556e-05,0.0,0 STARLINK-5224,1 55397U 23014G   23077.81141140  .00003556  00000-0  31313-4 0  9992,2 55397  69.9980 320.0019 0002996 251.3482 108.7389 15.69937134  7447,6737.214,91.723,361.097,357.06,0.0
55397.0,STARLINK-5224,PAYLOAD,2023-03-18 22:31:55,15.69943052,0.0003456,69.9978,319.6435,263.6155,96.4647,4.364e-05,5.042e-05,0.0,0 STARLINK-5224,1 55397U 23014G   23077.93884156  .00005042  00000-0  43640-4 0  9994,2 55397  69.9978 319.6435 0003456 263.6155  96.4647 15.69943052  8408,6737.197,91.723,361.39,356.734,0.0
55397.0,STARLINK-5224,PAYLOAD,2023-03-19 01:35:26,15.69927821,0.0003504,69.9952,319.2847,266.3731,93.7064,1.2134e-05,1.247e-05,0.0,0 STARLINK-5224,1 55397U 23014G   23078.06628093  .00001247  00000-0  12134-4 0  9992,2 55397  69.9952 319.2847 0003504 266.3731  93.7064 15.69927821  7483,6737.241,91.724,361.466,356.745,0.0
55397.0,STARLINK-5224,PAYLOAD,2023-03-19 09:14:13,15.69916419,0.0003402,69.9951,318.3895,264.7959,95.2848,3.2301e-06,1.75e-06,0.0,0 STARLINK-5224,1 55397U 23014G   23078.38487455  .00000175  00000-0  32301-5 0  9990,2 55397  69.9951 318.3895 0003402 264.7959  95.2848 15.69916419  7530,6737.273,91.725,361.43,356.846,0.0
55397.0,STARLINK-5224,PAYLOAD,2023-03-19 18:24:43,15.69925139,0.0003438,69.9969,317.3149,263.8144,96.266,-5.2068e-06,-8.39e-06,0.0,0 STARLINK-5224,1 55397U 23014G   23078.76716709 -.00000839  00000-0 -52068-5 0  9990,2 55397  69.9969 317.3149 0003438 263.8144  96.2660 15.69925139  7593,6737.248,91.724,361.429,356.797,0.0
55397.0,STARLINK-5224,PAYLOAD,2023-03-20 03:35:13,15.69920634,0.0003163,69.9974,316.2392,269.3088,90.7745,-2.1212e-05,-2.762e-05,0.0,0 STARLINK-5224,1 55397U 23014G   23079.14946744 -.00002762  00000-0 -21212-4 0  9990,2 55397  69.9974 316.2392 0003163 269.3088  90.7745 15.69920634  8599,6737.261,91.724,361.257,356.995,0.0
55397.0,STARLINK-5224,PAYLOAD,2023-03-20 18:52:45,15.69924636,0.0003491,69.9969,314.448,265.4891,94.5906,-1.6241e-05,-2.165e-05,0.0,0 STARLINK-5224,1 55397U 23014G   23079.78663502 -.00002165  00000-0 -16241-4 0  9991,2 55397  69.9969 314.4480 0003491 265.4891  94.5906 15.69924636  8692,6737.25,91.724,361.467,356.763,0.0
55397.0,STARLINK-5224,PAYLOAD,2023-03-21 00:59:45,15.69939585,0.0003205,69.9971,313.7312,259.2863,100.7972,1.5235e-05,1.621e-05,0.0,0 STARLINK-5224,1 55397U 23014G   23080.04149391  .00001621  00000-0  15235-4 0  9993,2 55397  69.9971 313.7312 0003205 259.2863 100.7972 15.69939585  7796,6737.207,91.723,361.231,356.913,0.0
55397.0,STARLINK-5224,PAYLOAD,2023-03-21 19:20:47,15.69917317,0.0004174,69.9964,311.5822,254.7534,105.3201,-2.5009e-06,-5.14e-06,0.0,0 STARLINK-5224,1 55397U 23014G   23080.80610319 -.00000514  00000-0 -25009-5 0  9993,2 55397  69.9964 311.5822 0004174 254.7534 105.3201 15.69917317  7910,6737.271,91.725,361.948,356.323,0.0
55397.0,STARLINK-5224,PAYLOAD,2023-03-22 02:59:32,15.69939329,0.0003753,69.9962,310.687,264.9189,95.1578,2.158e-05,2.384e-05,0.0,0 STARLINK-5224,1 55397U 23014G   23081.12467906  .00002384  00000-0  21580-4 0  9995,2 55397  69.9962 310.6870 0003753 264.9189  95.1578 15.69939329  7967,6737.208,91.723,361.601,356.544,0.0
55397.0,STARLINK-5224,PAYLOAD,2023-03-22 16:45:20,15.69906754,0.0003353,69.9971,309.0726,265.9531,94.1281,0.0001167,0.00013832,0.0,0 STARLINK-5224,1 55397U 23014G   23081.69814828  .00013832  00000-0  11670-3 0  9994,2 55397  69.9971 309.0726 0003353 265.9531  94.1281 15.69906754  8054,6737.301,91.725,361.425,356.907,0.0
55397.0,STARLINK-5224,PAYLOAD,2023-03-22 21:20:33,15.69947576,0.0003767,69.9972,308.5362,262.5742,97.5026,4.1927e-05,4.836e-05,0.0,0 STARLINK-5224,1 55397U 23014G   23081.88927428  .00004836  00000-0  41927-4 0  9999,2 55397  69.9972 308.5362 0003767 262.5742  97.5026 15.69947576  9020,6737.184,91.723,361.587,356.511,0.0
55397.0,STARLINK-5224,PAYLOAD,2023-03-23 00:24:04,15.69913325,0.0002966,69.998,308.1791,258.3597,101.7265,-2.176e-05,-2.827e-05,0.0,0 STARLINK-5224,1 55397U 23014G   23082.01672370 -.00002827  00000-0 -21760-4 0  9991,2 55397  69.9980 308.1791 0002966 258.3597 101.7265 15.69913325  9042,6737.282,91.725,361.145,357.149,0.0
55397.0,STARLINK-5224,PAYLOAD,2023-03-23 17:13:21,15.69924796,0.0003059,70.0004,306.2071,262.7528,97.332,1.6425e-05,1.763e-05,0.0,0 STARLINK-5224,1 55397U 23014G   23082.71760558  .00001763  00000-0  16425-4 0  9992,2 55397  70.0004 306.2071 0003059 262.7528  97.3320 15.69924796  8213,6737.249,91.724,361.175,357.053,0.0
55397.0,STARLINK-5224,PAYLOAD,2023-03-24 00:52:06,15.69925835,0.0003603,69.9965,305.3099,268.2743,91.804,-6.715e-06,-1.02e-05,0.0,0 STARLINK-5224,1 55397U 23014G   23083.03618387 -.00001020  00000-0 -67150-5 0  9990,2 55397  69.9965 305.3099 0003603 268.2743  91.8040 15.69925835  9204,6737.246,91.724,361.539,356.684,0.0
55397.0,STARLINK-5224,PAYLOAD,2023-03-24 20:44:50,15.69984911,0.0003541,69.9977,302.9831,266.6898,93.3892,9.2777e-05,0.00010986,0.0,0 STARLINK-5224,1 55397U 23014G   23083.86447369  .00010986  00000-0  92777-4 0  9992,2 55397  69.9977 302.9831 0003541 266.6898  93.3892 15.69984911  8399,6737.077,91.721,361.328,356.557,0.0
55397.0,STARLINK-5224,PAYLOAD,2023-03-24 22:16:35,15.69977997,0.0002654,69.9991,302.803,244.5659,115.5263,8.9578e-05,0.00010595,0.0,0 STARLINK-5224,1 55397U 23014G   23083.92819307  .00010595  00000-0  89578-4 0  9995,2 55397  69.9991 302.8030 0002654 244.5659 115.5263 15.69977997  9340,6737.097,91.721,360.75,357.174,0.0
55397.0,STARLINK-5224,PAYLOAD,2023-03-24 23:48:22,15.69923129,0.0002716,69.9983,302.6248,271.8929,88.1956,-2.8812e-05,-3.675e-05,0.0,0 STARLINK-5224,1 55397U 23014G   23083.99193141 -.00003675  00000-0 -28812-4 0  9990,2 55397  69.9983 302.6248 0002716 271.8929  88.1956 15.69923129  8411,6737.254,91.724,360.949,357.289,0.0
